{
    "links": {
        "self": "http://www.neowsapp.com/rest/v1/neo/3978223?api_key=iIulBulltgU6a56xZRHN4H3l9WmuAYTsLGpBGhQ2"
    },
    "id": "3978223",
    "neo_reference_id": "3978223",
    "name": "(2020 AL2)",
    "designation": "2020 AL2",
    "nasa_jpl_url": "http://ssd.jpl.nasa.gov/sbdb.cgi?sstr=3978223",
    "absolute_magnitude_h": 25.6,
    "estimated_diameter": {
        "kilometers": {
            "estimated_diameter_min": 0.0201629919,
            "estimated_diameter_max": 0.0450858206
        },
        "meters": {
            "estimated_diameter_min": 20.1629919443,
            "estimated_diameter_max": 45.0858206172
        },
        "miles": {
            "estimated_diameter_min": 0.0125286985,
            "estimated_diameter_max": 0.0280150214
        },
        "feet": {
            "estimated_diameter_min": 66.1515504905,
            "estimated_diameter_max": 147.9193637137
        }
    },
    "is_potentially_hazardous_asteroid": false,
    "close_approach_data": [
        {
            "close_approach_date": "1963-12-17",
            "close_approach_date_full": "1963-Dec-17 20:20",
            "epoch_date_close_approach": -190611600000,
            "relative_velocity": {
                "kilometers_per_second": "9.1789051503",
                "kilometers_per_hour": "33044.0585411668",
                "miles_per_hour": "20532.29293076"
            },
            "miss_distance": {
                "astronomical": "1.4646659514",
                "lunar": "569.7550550946",
                "kilometers": "219110906.590963518",
                "miles": "136149204.0331438284"
            },
            "orbiting_body": "Juptr"
        },
        {
            "close_approach_date": "2020-01-10",
            "close_approach_date_full": "2020-Jan-10 06:10",
            "epoch_date_close_approach": 1578636600000,
            "relative_velocity": {
                "kilometers_per_second": "24.7866414447",
                "kilometers_per_hour": "89231.9092009438",
                "miles_per_hour": "55445.2382476642"
            },
            "miss_distance": {
                "astronomical": "0.0159318034",
                "lunar": "6.1974715226",
                "kilometers": "2383363.853898758",
                "miles": "1480953.6260805404"
            },
            "orbiting_body": "Earth"
        }
    ],
    "orbital_data": {
        "orbit_id": "1",
        "orbit_determination_date": "2020-01-07 11:42:07",
        "first_observation_date": "2020-01-05",
        "last_observation_date": "2020-01-07",
        "data_arc_in_days": 2,
        "observations_used": 37,
        "orbit_uncertainty": "9",
        "minimum_orbit_intersection": ".00580291",
        "jupiter_tisserand_invariant": "3.123",
        "epoch_osculation": "2458854.5",
        "eccentricity": ".7759535959474056",
        "semi_major_axis": "2.271351783331763",
        "inclination": "3.057646608876883",
        "ascending_node_longitude": "103.6809562050897",
        "orbital_period": "1250.331090119147",
        "perihelion_distance": ".5088881993939288",
        "perihelion_argument": "102.3034867591097",
        "aphelion_distance": "4.033815367269597",
        "perihelion_time": "2458902.813906061480",
        "mean_anomaly": "346.0892796159492",
        "mean_motion": ".2879237370364795",
        "equinox": "J2000",
        "orbit_class": {
            "orbit_class_type": "APO",
            "orbit_class_description": "Near-Earth asteroid orbits which cross the Earth’s orbit similar to that of 1862 Apollo",
            "orbit_class_range": "a (semi-major axis) > 1.0 AU; q (perihelion) < 1.017 AU"
        }
    },
    "is_sentry_object": false
}